<?xml version="1.0" encoding="UTF-8"?>
<ndm xmlns:xsi="http://www.w3.org/2001/XMLSchema-instance" xsi:noNamespaceSchemaLocation="https://sanaregistry.org/r/ndmxml_unqualified/ndmxml-2.0.0-master-2.0.xsd">
<omm id="CCSDS_OMM_VERS" version="2.0">
<header><CREATION_DATE/><ORIGINATOR/></header><body><segment><metadata><OBJECT_NAME>KUIPER-00035</OBJECT_NAME><OBJECT_ID>2025-088AA</OBJECT_ID><CENTER_NAME>EARTH</CENTER_NAME><REF_FRAME>TEME</REF_FRAME><TIME_SYSTEM>UTC</TIME_SYSTEM><MEAN_ELEMENT_THEORY>SGP4</MEAN_ELEMENT_THEORY></metadata><data><meanElements><EPOCH>2025-12-21T12:11:17.647296</EPOCH><MEAN_MOTION>14.79937008</MEAN_MOTION><ECCENTRICITY>.00068625</ECCENTRICITY><INCLINATION>51.9021</INCLINATION><RA_OF_ASC_NODE>99.8336</RA_OF_ASC_NODE><ARG_OF_PERICENTER>170.5231</ARG_OF_PERICENTER><MEAN_ANOMALY>189.5862</MEAN_ANOMALY></meanElements><tleParameters><EPHEMERIS_TYPE>0</EPHEMERIS_TYPE><CLASSIFICATION_TYPE>U</CLASSIFICATION_TYPE><NORAD_CAT_ID>63748</NORAD_CAT_ID><ELEMENT_SET_NO>999</ELEMENT_SET_NO><REV_AT_EPOCH>3593</REV_AT_EPOCH><BSTAR>.33234894E-3</BSTAR><MEAN_MOTION_DOT>.2313E-4</MEAN_MOTION_DOT><MEAN_MOTION_DDOT>0</MEAN_MOTION_DDOT></tleParameters></data></segment></body></omm>
<omm id="CCSDS_OMM_VERS" version="2.0">
<header><CREATION_DATE/><ORIGINATOR/></header><body><segment><metadata><OBJECT_NAME>KUIPER-00037</OBJECT_NAME><OBJECT_ID>2025-088AB</OBJECT_ID><CENTER_NAME>EARTH</CENTER_NAME><REF_FRAME>TEME</REF_FRAME><TIME_SYSTEM>UTC</TIME_SYSTEM><MEAN_ELEMENT_THEORY>SGP4</MEAN_ELEMENT_THEORY></metadata><data><meanElements><EPOCH>2025-12-21T20:00:01.999008</EPOCH><MEAN_MOTION>14.80088297</MEAN_MOTION><ECCENTRICITY>.0000423</ECCENTRICITY><INCLINATION>51.8996</INCLINATION><RA_OF_ASC_NODE>97.3541</RA_OF_ASC_NODE><ARG_OF_PERICENTER>105.8553</ARG_OF_PERICENTER><MEAN_ANOMALY>174.0472</MEAN_ANOMALY></meanElements><tleParameters><EPHEMERIS_TYPE>0</EPHEMERIS_TYPE><CLASSIFICATION_TYPE>U</CLASSIFICATION_TYPE><NORAD_CAT_ID>63749</NORAD_CAT_ID><ELEMENT_SET_NO>999</ELEMENT_SET_NO><REV_AT_EPOCH>362</REV_AT_EPOCH><BSTAR>.11672E-3</BSTAR><MEAN_MOTION_DOT>.672E-5</MEAN_MOTION_DOT><MEAN_MOTION_DDOT>0</MEAN_MOTION_DDOT></tleParameters></data></segment></body></omm>
<omm id="CCSDS_OMM_VERS" version="2.0">
<header><CREATION_DATE/><ORIGINATOR/></header><body><segment><metadata><OBJECT_NAME>KUIPER-00038</OBJECT_NAME><OBJECT_ID>2025-088AC</OBJECT_ID><CENTER_NAME>EARTH</CENTER_NAME><REF_FRAME>TEME</REF_FRAME><TIME_SYSTEM>UTC</TIME_SYSTEM><MEAN_ELEMENT_THEORY>SGP4</MEAN_ELEMENT_THEORY></metadata><data><meanElements><EPOCH>2025-12-21T15:51:22.987008</EPOCH><MEAN_MOTION>14.79912800</MEAN_MOTION><ECCENTRICITY>.0006922</ECCENTRICITY><INCLINATION>51.9000</INCLINATION><RA_OF_ASC_NODE>83.1215</RA_OF_ASC_NODE><ARG_OF_PERICENTER>176.6557</ARG_OF_PERICENTER><MEAN_ANOMALY>183.4453</MEAN_ANOMALY></meanElements><tleParameters><EPHEMERIS_TYPE>0</EPHEMERIS_TYPE><CLASSIFICATION_TYPE>U</CLASSIFICATION_TYPE><NORAD_CAT_ID>63750</NORAD_CAT_ID><ELEMENT_SET_NO>999</ELEMENT_SET_NO><REV_AT_EPOCH>3596</REV_AT_EPOCH><BSTAR>.11417E-2</BSTAR><MEAN_MOTION_DOT>.8491E-4</MEAN_MOTION_DOT><MEAN_MOTION_DDOT>0</MEAN_MOTION_DDOT></tleParameters></data></segment></body></omm>
<omm id="CCSDS_OMM_VERS" version="2.0">
<header><CREATION_DATE/><ORIGINATOR/></header><body><segment><metadata><OBJECT_NAME>KUIPER-00039</OBJECT_NAME><OBJECT_ID>2025-134A</OBJECT_ID><CENTER_NAME>EARTH</CENTER_NAME><REF_FRAME>TEME</REF_FRAME><TIME_SYSTEM>UTC</TIME_SYSTEM><MEAN_ELEMENT_THEORY>SGP4</MEAN_ELEMENT_THEORY></metadata><data><meanElements><EPOCH>2025-12-21T20:03:43.265952</EPOCH><MEAN_MOTION>14.79948090</MEAN_MOTION><ECCENTRICITY>.0011529</ECCENTRICITY><INCLINATION>51.9000</INCLINATION><RA_OF_ASC_NODE>217.3531</RA_OF_ASC_NODE><ARG_OF_PERICENTER>33.6180</ARG_OF_PERICENTER><MEAN_ANOMALY>326.5511</MEAN_ANOMALY></meanElements><tleParameters><EPHEMERIS_TYPE>0</EPHEMERIS_TYPE><CLASSIFICATION_TYPE>U</CLASSIFICATION_TYPE><NORAD_CAT_ID>64500</NORAD_CAT_ID><ELEMENT_SET_NO>999</ELEMENT_SET_NO><REV_AT_EPOCH>2854</REV_AT_EPOCH><BSTAR>.37342E-3</BSTAR><MEAN_MOTION_DOT>.2628E-4</MEAN_MOTION_DOT><MEAN_MOTION_DDOT>0</MEAN_MOTION_DDOT></tleParameters></data></segment></body></omm>
<omm id="CCSDS_OMM_VERS" version="2.0">
<header><CREATION_DATE/><ORIGINATOR/></header><body><segment><metadata><OBJECT_NAME>KUIPER-00040</OBJECT_NAME><OBJECT_ID>2025-134B</OBJECT_ID><CENTER_NAME>EARTH</CENTER_NAME><REF_FRAME>TEME</REF_FRAME><TIME_SYSTEM>UTC</TIME_SYSTEM><MEAN_ELEMENT_THEORY>SGP4</MEAN_ELEMENT_THEORY></metadata><data><meanElements><EPOCH>2025-12-21T19:45:40.577184</EPOCH><MEAN_MOTION>14.79934371</MEAN_MOTION><ECCENTRICITY>.0016707</ECCENTRICITY><INCLINATION>51.8993</INCLINATION><RA_OF_ASC_NODE>228.5625</RA_OF_ASC_NODE><ARG_OF_PERICENTER>12.7896</ARG_OF_PERICENTER><MEAN_ANOMALY>347.3487</MEAN_ANOMALY></meanElements><tleParameters><EPHEMERIS_TYPE>0</EPHEMERIS_TYPE><CLASSIFICATION_TYPE>U</CLASSIFICATION_TYPE><NORAD_CAT_ID>64501</NORAD_CAT_ID><ELEMENT_SET_NO>999</ELEMENT_SET_NO><REV_AT_EPOCH>2838</REV_AT_EPOCH><BSTAR>.41597E-3</BSTAR><MEAN_MOTION_DOT>.2954E-4</MEAN_MOTION_DOT><MEAN_MOTION_DDOT>0</MEAN_MOTION_DDOT></tleParameters></data></segment></body></omm>
<omm id="CCSDS_OMM_VERS" version="2.0">
<header><CREATION_DATE/><ORIGINATOR/></header><body><segment><metadata><OBJECT_NAME>KUIPER-00041</OBJECT_NAME><OBJECT_ID>2025-134C</OBJECT_ID><CENTER_NAME>EARTH</CENTER_NAME><REF_FRAME>TEME</REF_FRAME><TIME_SYSTEM>UTC</TIME_SYSTEM><MEAN_ELEMENT_THEORY>SGP4</MEAN_ELEMENT_THEORY></metadata><data><meanElements><EPOCH>2025-12-21T19:44:16.705248</EPOCH><MEAN_MOTION>14.79915988</MEAN_MOTION><ECCENTRICITY>.0012779</ECCENTRICITY><INCLINATION>51.9003</INCLINATION><RA_OF_ASC_NODE>229.9216</RA_OF_ASC_NODE><ARG_OF_PERICENTER>12.4103</ARG_OF_PERICENTER><MEAN_ANOMALY>347.7172</MEAN_ANOMALY></meanElements><tleParameters><EPHEMERIS_TYPE>0</EPHEMERIS_TYPE><CLASSIFICATION_TYPE>U</CLASSIFICATION_TYPE><NORAD_CAT_ID>64502</NORAD_CAT_ID><ELEMENT_SET_NO>999</ELEMENT_SET_NO><REV_AT_EPOCH>2836</REV_AT_EPOCH><BSTAR>.26107E-2</BSTAR><MEAN_MOTION_DOT>.19755E-3</MEAN_MOTION_DOT><MEAN_MOTION_DDOT>0</MEAN_MOTION_DDOT></tleParameters></data></segment></body></omm>
<omm id="CCSDS_OMM_VERS" version="2.0">
<header><CREATION_DATE/><ORIGINATOR/></header><body><segment><metadata><OBJECT_NAME>KUIPER-00042</OBJECT_NAME><OBJECT_ID>2025-134D</OBJECT_ID><CENTER_NAME>EARTH</CENTER_NAME><REF_FRAME>TEME</REF_FRAME><TIME_SYSTEM>UTC</TIME_SYSTEM><MEAN_ELEMENT_THEORY>SGP4</MEAN_ELEMENT_THEORY></metadata><data><meanElements><EPOCH>2025-12-21T19:49:37.390080</EPOCH><MEAN_MOTION>14.79967015</MEAN_MOTION><ECCENTRICITY>.0012712</ECCENTRICITY><INCLINATION>51.8984</INCLINATION><RA_OF_ASC_NODE>225.9090</RA_OF_ASC_NODE><ARG_OF_PERICENTER>23.8516</ARG_OF_PERICENTER><MEAN_ANOMALY>336.3033</MEAN_ANOMALY></meanElements><tleParameters><EPHEMERIS_TYPE>0</EPHEMERIS_TYPE><CLASSIFICATION_TYPE>U</CLASSIFICATION_TYPE><NORAD_CAT_ID>64503</NORAD_CAT_ID><ELEMENT_SET_NO>999</ELEMENT_SET_NO><REV_AT_EPOCH>2842</REV_AT_EPOCH><BSTAR>.40133E-3</BSTAR><MEAN_MOTION_DOT>.2843E-4</MEAN_MOTION_DOT><MEAN_MOTION_DDOT>0</MEAN_MOTION_DDOT></tleParameters></data></segment></body></omm>
<omm id="CCSDS_OMM_VERS" version="2.0">
<header><CREATION_DATE/><ORIGINATOR/></header><body><segment><metadata><OBJECT_NAME>KUIPER-00043</OBJECT_NAME><OBJECT_ID>2025-134E</OBJECT_ID><CENTER_NAME>EARTH</CENTER_NAME><REF_FRAME>TEME</REF_FRAME><TIME_SYSTEM>UTC</TIME_SYSTEM><MEAN_ELEMENT_THEORY>SGP4</MEAN_ELEMENT_THEORY></metadata><data><meanElements><EPOCH>2025-12-21T20:01:20.869248</EPOCH><MEAN_MOTION>14.79863074</MEAN_MOTION><ECCENTRICITY>.0003931</ECCENTRICITY><INCLINATION>51.9009</INCLINATION><RA_OF_ASC_NODE>218.3217</RA_OF_ASC_NODE><ARG_OF_PERICENTER>45.3963</ARG_OF_PERICENTER><MEAN_ANOMALY>314.7320</MEAN_ANOMALY></meanElements><tleParameters><EPHEMERIS_TYPE>0</EPHEMERIS_TYPE><CLASSIFICATION_TYPE>U</CLASSIFICATION_TYPE><NORAD_CAT_ID>64504</NORAD_CAT_ID><ELEMENT_SET_NO>999</ELEMENT_SET_NO><REV_AT_EPOCH>2853</REV_AT_EPOCH><BSTAR>-.7043E-4</BSTAR><MEAN_MOTION_DOT>-.758E-5</MEAN_MOTION_DOT><MEAN_MOTION_DDOT>0</MEAN_MOTION_DDOT></tleParameters></data></segment></body></omm>

</ndm>
