KUIPER-00035            
1 63748U 25088AA  25355.50784314  .00002313  00000+0  33235-3 0  9990
2 63748  51.9021  99.8336 0006862 170.5231 189.5862 14.79937008 35934
KUIPER-00037            
1 63749U 25088AB  25355.83335647  .00000672  00000+0  11672-3 0  9995
2 63749  51.8996  97.3541 0000423 105.8553 174.0472 14.80088297  3627
KUIPER-00038            
1 63750U 25088AC  25355.66068272  .00008491  00000+0  11417-2 0  9998
2 63750  51.9000  83.1215 0006922 176.6557 183.4453 14.79912800 35966
KUIPER-00039            
1 64500U 25134A   25355.83591743  .00002628  00000+0  37342-3 0  9999
2 64500  51.9000 217.3531 0011529  33.6180 326.5511 14.79948090 28546
KUIPER-00040            
1 64501U 25134B   25355.82338631  .00002954  00000+0  41597-3 0  9993
2 64501  51.8993 228.5625 0016707  12.7896 347.3487 14.79934371 28382
KUIPER-00041            
1 64502U 25134C   25355.82241557  .00019755  00000+0  26107-2 0  9990
2 64502  51.9003 229.9216 0012779  12.4103 347.7172 14.79915988 28366
KUIPER-00042            
1 64503U 25134D   25355.82612720  .00002843  00000+0  40133-3 0  9991
2 64503  51.8984 225.9090 0012712  23.8516 336.3033 14.79967015 28426
KUIPER-00043            
1 64504U 25134E   25355.83426932 -.00000758  00000+0 -70430-4 0  9990
2 64504  51.9009 218.3217 0003931  45.3963 314.7320 14.79863074 28532
